// Satellite data - TLE elements for GNSS constellations
window.SATELLITE_DATA = {
    gps: [
        { name: 'GPS BIIA-23', tle1: '1 22023U 92050A   24120.50000000  .00000000  00000-0  00000-0 0  9993', tle2: '2 22023  55.0000 212.5000 0000000  00.0000 120.0000  2.00562470123456'},
        { name: 'GPS BIIA-25', tle1: '1 22477U 93042A   24120.50000000  .00000000  00000-0  00000-0 0  9994', tle2: '2 22477  55.0000 212.5000 0000000  00.0000 120.0000  2.00562470123456'},
        { name: 'GPS BIIR-19', tle1: '1 25033U 97035A   24120.50000000  .00000000  00000-0  00000-0 0  9995', tle2: '2 25033  55.0000 212.5000 0000000  00.0000 120.0000  2.00562470123456'},
        { name: 'GPS BIIR-21', tle1: '1 26407U 00025A   24120.50000000  .00000000  00000-0  00000-0 0  9996', tle2: '2 26407  55.0000 212.5000 0000000  00.0000 120.0000  2.00562470123456'},
        { name: 'GPS BIIR-17', tle1: '1 24876U 97029A   24120.50000000  .00000000  00000-0  00000-0 0  9997', tle2: '2 24876  55.0000 212.5000 0000000  00.0000 120.0000  2.00562470123456'},
    ],
    glonass: [
        { name: 'GLONASS-100', tle1: '1 24001U 99040A   24120.50000000  .00000000  00000-0  00000-0 0  9991', tle2: '2 24001  64.8000 212.5000 0000000  00.0000 120.0000  2.00562470123456'},
        { name: 'GLONASS-101', tle1: '1 24002U 99040B   24120.50000000  .00000000  00000-0  00000-0 0  9992', tle2: '2 24002  64.8000 212.5000 0000000  00.0000 120.0000  2.00562470123456'},
        { name: 'GLONASS-102', tle1: '1 24003U 99040C   24120.50000000  .00000000  00000-0  00000-0 0  9993', tle2: '2 24003  64.8000 212.5000 0000000  00.0000 120.0000  2.00562470123456'},
    ],
    galileo: [
        { name: 'Galileo-1', tle1: '1 37846U 11061A   24120.50000000  .00000000  00000-0  00000-0 0  9991', tle2: '2 37846  56.0000 212.5000 0000000  00.0000 120.0000  2.00562470123456'},
        { name: 'Galileo-2', tle1: '1 37847U 11062A   24120.50000000  .00000000  00000-0  00000-0 0  9992', tle2: '2 37847  56.0000 212.5000 0000000  00.0000 120.0000  2.00562470123456'},
        { name: 'Galileo-3', tle1: '1 40126U 14050A   24120.50000000  .00000000  00000-0  00000-0 0  9993', tle2: '2 40126  56.0000 212.5000 0000000  00.0000 120.0000  2.00562470123456'},
    ],
    beidou: [
        { name: 'BeiDou-M1', tle1: '1 30323U 07002A   24120.50000000  .00000000  00000-0  00000-0 0  9991', tle2: '2 30323  55.0000 212.5000 0000000  00.0000 120.0000  2.00562470123456'},
        { name: 'BeiDou-G1', tle1: '1 32744U 08012A   24120.50000000  .00000000  00000-0  00000-0 0  9992', tle2: '2 32744  55.0000 212.5000 0000000  00.0000 120.0000  2.00562470123456'},
        { name: 'BeiDou-G2', tle1: '1 32751U 08012B   24120.50000000  .00000000  00000-0  00000-0 0  9993', tle2: '2 32751  55.0000 212.5000 0000000  00.0000 120.0000  2.00562470123456'},
    ],
    qzss: [
        { name: 'QZSS-1', tle1: '1 37158U 10041A   24120.50000000  .00000000  00000-0  00000-0 0  9991', tle2: '2 37158  45.0000 212.5000 0000000  00.0000 120.0000  2.00562470123456'},
    ],
    irnss: [
        { name: 'IRNSS-1A', tle1: '1 39199U 13034A   24120.50000000  .00000000  00000-0  00000-0 0  9991', tle2: '2 39199  29.0000 212.5000 0000000  00.0000 120.0000  2.00562470123456'},
    ],
    sbas: [
        { name: 'EGNOS-1', tle1: '1 39741U 14020A   24120.50000000  .00000000  00000-0  00000-0 0  9991', tle2: '2 39741  57.0000 212.5000 0000000  00.0000 120.0000  2.00562470123456'},
    ]
};
